NORAD_CAT_ID,OBJECT_NAME,OBJECT_TYPE,EPOCH,MEAN_MOTION,ECCENTRICITY,INCLINATION,RA_OF_ASC_NODE,ARG_OF_PERICENTER,MEAN_ANOMALY,BSTAR,MEAN_MOTION_DOT,MEAN_MOTION_DDOT,TLE_LINE0,TLE_LINE1,TLE_LINE2,SEMIMAJOR_AXIS,PERIOD,APOGEE,PERIGEE,DECAYED
49730.0,STARLINK-3249,PAYLOAD,2022-02-07 14:00:01,15.08826518,0.0002435,53.2174,12.9693,40.5798,333.5899,-0.0017464,-0.00027966,0.0,0 STARLINK-3249,1 49730U 21115G   22038.58334491 -.00027966  00000-0 -17464-2 0  9991,2 49730  53.2174  12.9693 0002435  40.5798 333.5899 15.08826518  3595,6917.922,95.438,541.471,538.102,0.0
49730.0,STARLINK-3249,PAYLOAD,2022-02-07 16:00:00,15.08812602,0.0002364,53.2176,12.5948,42.2037,64.8619,5.5039e-05,5.87e-06,0.0,0 STARLINK-3249,1 49730U 21115G   22038.66667824  .00000587  00000-0  55039-4 0  9999,2 49730  53.2176  12.5948 0002364  42.2037  64.8619 15.08812602 11404,6917.964,95.439,541.465,538.194,0.0
49730.0,STARLINK-3249,PAYLOAD,2022-02-07 22:00:00,15.08812661,0.0002371,53.2176,11.4721,45.2415,340.4944,0.0018637,0.00029476,0.0,0 STARLINK-3249,1 49730U 21115G   22038.91667824  .00029476  00000-0  18637-2 0  9996,2 49730  53.2176  11.4721 0002371  45.2415 340.4944 15.08812661  3604,6917.964,95.439,541.469,538.189,0.0
49730.0,STARLINK-3249,PAYLOAD,2022-02-08 14:00:01,15.08847986,0.0002541,53.2176,8.4802,42.7541,6.1307,-0.0015658,-0.00025128,0.0,0 STARLINK-3249,1 49730U 21115G   22039.58334491 -.00025128  00000-0 -15658-2 0  9993,2 49730  53.2176   8.4802 0002541  42.7541   6.1307 15.08847986 11540,6917.856,95.437,541.479,537.9630000000002,0.0
49730.0,STARLINK-3249,PAYLOAD,2022-02-08 22:00:01,15.08840224,0.0002498,53.2178,6.9831,47.0077,13.5325,0.0014497,0.0002286,0.0,0 STARLINK-3249,1 49730U 21115G   22039.91668981  .00022860  00000-0  14497-2 0  9992,2 49730  53.2178   6.9831 0002498  47.0077  13.5325 15.08840224  3608,6917.88,95.438,541.4730000000002,538.0169999999998,0.0
49730.0,STARLINK-3249,PAYLOAD,2022-02-09 06:00:00,15.08841075,0.0002718,53.218,5.4885,44.0425,28.0423,0.0012319,0.00019373,0.0,0 STARLINK-3249,1 49730U 21115G   22040.25001157  .00019373  00000-0  12319-2 0  9993,2 49730  53.2180   5.4885 0002718  44.0425  28.0423 15.08841075 11641,6917.877,95.437,541.622,537.862,0.0
49730.0,STARLINK-3249,PAYLOAD,2022-02-09 14:00:01,15.08872039,0.0002623,53.218,3.991,44.9799,38.7094,-0.0012970999999999,-0.00020892,0.0,0 STARLINK-3249,1 49730U 21115G   22040.58334491 -.00020892  00000-0 -12971-2 0  9993,2 49730  53.2180   3.9910 0002623  44.9799  38.7094 15.08872039  3615,6917.781999999997,95.436,541.462,537.8330000000002,0.0
49730.0,STARLINK-3249,PAYLOAD,2022-02-10 06:00:00,15.08835885,0.0002707,53.2184,0.9993,43.7848,63.1545,0.001649,0.00026051,0.0,0 STARLINK-3249,1 49730U 21115G   22041.25001157  .00026051  00000-0  16490-2 0  9999,2 49730  53.2184   0.9993 0002707  43.7848  63.1545 15.08835885 11791,6917.893,95.438,541.631,537.885,0.0
49730.0,STARLINK-3249,PAYLOAD,2022-02-10 14:00:01,15.08873696,0.0002553,53.2183,359.5016,44.9094,73.6931,-0.0039821,-0.0006317,0.0,0 STARLINK-3249,1 49730U 21115G   22041.58335648 -.00063170  00000-0 -39821-2 0  9998,2 49730  53.2183 359.5016 0002553  44.9094  73.6931 15.08873696  3590,6917.776999999999,95.435,541.409,537.876,0.0
49730.0,STARLINK-3249,PAYLOAD,2022-02-10 21:25:34,15.08852364,0.0002826,53.2191,358.1124,39.1212,320.9984,0.00016068,2.271e-05,0.0,0 STARLINK-3249,1 49730U 21115G   22041.89275478  .00002271  00000-0  16068-3 0  9998,2 49730  53.2191 358.1124 0002826  39.1212 320.9984 15.08852364 10789,6917.843000000003,95.437,541.663,537.753,0.0
49730.0,STARLINK-3249,PAYLOAD,2022-02-10 22:00:00,15.0884521,0.0002483,53.2186,358.0048,47.559,82.59100000000002,0.0005888,9.096e-05,0.0,0 STARLINK-3249,1 49730U 21115G   22041.91667824  .00009096  00000-0  58880-3 0  9991,2 49730  53.2186 358.0048 0002483  47.5590  82.5910 15.08845210 11893,6917.864000000001,95.437,541.447,538.012,0.0
49730.0,STARLINK-3249,PAYLOAD,2022-02-11 13:19:24,15.08858773,0.0002582,53.2183,355.1389,47.6292,312.4919,0.00012246,1.662e-05,0.0,0 STARLINK-3249,1 49730U 21115G   22042.55514468  .00001662  00000-0  12246-3 0  9994,2 49730  53.2183 355.1389 0002582  47.6292 312.4919 15.08858773 10886,6917.823,95.436,541.474,537.9019999999998,0.0
49730.0,STARLINK-3249,PAYLOAD,2022-02-11 21:16:19,15.08866218,0.0002898999999999,53.2183,353.6517,38.6257,321.4943,0.00020332,2.951e-05,0.0,0 STARLINK-3249,1 49730U 21115G   22042.88633688  .00002951  00000-0  20332-3 0  9993,2 49730  53.2183 353.6517 0002899  38.6257 321.4943 15.08866218 10930,6917.8,95.436,541.6709999999998,537.66,0.0
49730.0,STARLINK-3249,PAYLOAD,2022-02-11 22:00:01,15.08878393,0.0002372,53.2187,353.5157,47.8896,117.1932,-0.00025062,-4.279e-05,0.0,0 STARLINK-3249,1 49730U 21115G   22042.91668981 -.00004279  00000-0 -25062-3 0  9993,2 49730  53.2187 353.5157 0002372  47.8896 117.1932 15.08878393 12050,6917.763000000001,95.435,541.269,537.987,0.0
49730.0,STARLINK-3249,PAYLOAD,2022-02-12 06:00:00,15.0884743,0.000248,53.2185,352.021,41.7731,134.8819,-0.00023708,-4.061e-05,0.0,0 STARLINK-3249,1 49730U 21115G   22043.25001157 -.00004061  00000-0 -23708-3 0  9991,2 49730  53.2185 352.0210 0002480  41.7731 134.8819 15.08847430 12107,6917.858,95.437,541.438,538.007,0.0
49730.0,STARLINK-3249,PAYLOAD,2022-02-12 13:10:10,15.08858452,0.0002569,53.218,350.6785,47.2956,312.8252,4.0764e-05,3.61e-06,0.0,0 STARLINK-3249,1 49730U 21115G   22043.54872964  .00000361  00000-0  40764-4 0  9994,2 49730  53.2180 350.6785 0002569  47.2956 312.8252 15.08858452 11037,6917.824000000001,95.436,541.466,537.9119999999998,0.0
49730.0,STARLINK-3249,PAYLOAD,2022-02-12 22:00:00,15.08826643,0.0002112,53.2185,349.0269,42.7876,157.037,-0.0027095,-0.00043138,0.0,0 STARLINK-3249,1 49730U 21115G   22043.91667824 -.00043138  00000-0 -27095-2 0  9993,2 49730  53.2185 349.0269 0002112  42.7876 157.0370 15.08826643 12203,6917.920999999999,95.438,541.247,538.325,0.0
49730.0,STARLINK-3249,PAYLOAD,2022-02-13 14:00:01,15.08798742,0.0002132,53.218,346.0344,40.7419,182.1741,0.00048172,7.378e-05,0.0,0 STARLINK-3249,1 49730U 21115G   22044.58334491  .00007378  00000-0  48172-3 0  9992,2 49730  53.2180 346.0344 0002132  40.7419 182.1741 15.08798742 12302,6918.007,95.44,541.346,538.3969999999998,0.0
49730.0,STARLINK-3249,PAYLOAD,2022-02-13 22:00:00,15.08846451,0.0002079,53.2181,344.5384,41.3905,193.1073,-0.00057261,-9.392e-05,0.0,0 STARLINK-3249,1 49730U 21115G   22044.91667824 -.00009392  00000-0 -57261-3 0  9997,2 49730  53.2181 344.5384 0002079  41.3905 193.1073 15.08846451 12353,6917.861,95.437,541.164,538.2869999999998,0.0
49730.0,STARLINK-3249,PAYLOAD,2022-02-14 14:00:01,15.088501999999998,0.0002121,53.2178,341.5454,40.0091,217.6939,0.00029016,4.334e-05,0.0,0 STARLINK-3249,1 49730U 21115G   22045.58334491  .00004334  00000-0  29016-3 0  9998,2 49730  53.2178 341.5454 0002121  40.0091 217.6939 15.08850200  3590,6917.849,95.437,541.181,538.247,0.0
49730.0,STARLINK-3249,PAYLOAD,2022-02-14 20:00:01,15.08868879,0.0002101,53.2179,340.423,42.9498,133.4538,-0.0024257,-0.00038718,0.0,0 STARLINK-3249,1 49730U 21115G   22045.83334491 -.00038718  00000-0 -24257-2 0  9992,2 49730  53.2179 340.4230 0002101  42.9498 133.4538 15.08868879 12491,6917.792,95.436,541.111,538.2040000000002,0.0
49730.0,STARLINK-3249,PAYLOAD,2022-02-15 14:00:01,15.08811038,0.0002122,53.218,337.0565,37.4089,255.0934,0.00034179,5.151e-05,0.0,0 STARLINK-3249,1 49730U 21115G   22046.58334491  .00005151  00000-0  34179-3 0  9993,2 49730  53.2180 337.0565 0002122  37.4089 255.0934 15.08811038  3568,6917.969,95.439,541.302,538.366,0.0
49730.0,STARLINK-3249,PAYLOAD,2022-02-15 22:00:01,15.08834189,0.0002173,53.218,335.5606,39.4237,264.699,-0.0010664,-0.00017218,0.0,0 STARLINK-3249,1 49730U 21115G   22046.91668981 -.00017218  00000-0 -10664-2 0  9995,2 49730  53.2180 335.5606 0002173  39.4237 264.6990 15.08834189 12650,6917.898,95.438,541.266,538.26,0.0
49730.0,STARLINK-3249,PAYLOAD,2022-02-16 14:00:01,15.08818381,0.0002219,53.2182,332.5678,39.4232,287.8005,0.0018227,0.00028823,0.0,0 STARLINK-3249,1 49730U 21115G   22047.58334491  .00028823  00000-0  18227-2 0  9990,2 49730  53.2182 332.5678 0002219  39.4232 287.8005 15.08818381  3586,6917.946,95.439,541.347,538.276,0.0
49730.0,STARLINK-3249,PAYLOAD,2022-02-16 22:00:00,15.08858385,0.0002314,53.2181,331.0721,40.8554,297.948,-0.0011948,-0.00019264,0.0,0 STARLINK-3249,1 49730U 21115G   22047.91667824 -.00019264  00000-0 -11948-2 0  9990,2 49730  53.2181 331.0721 0002314  40.8554 297.9480 15.08858385  3562,6917.824000000001,95.436,541.29,538.0880000000002,0.0
49730.0,STARLINK-3249,PAYLOAD,2022-02-17 14:00:01,15.08843617,0.0002254,53.216,328.0789,40.5421,321.4912,-6.0169e-05,-1.246e-05,0.0,0 STARLINK-3249,1 49730U 21115G   22048.58334491 -.00001246  00000-0 -60169-4 0  9997,2 49730  53.2160 328.0789 0002254  40.5421 321.4912 15.08843617 12905,6917.869000000002,95.437,541.294,538.175,0.0
49730.0,STARLINK-3249,PAYLOAD,2022-02-17 22:00:00,15.08859843,0.0002323,53.2161,326.5832,40.4824,333.1477,-0.0012704,-0.00020462,0.0,0 STARLINK-3249,1 49730U 21115G   22048.91667824 -.00020462  00000-0 -12704-2 0  9994,2 49730  53.2161 326.5832 0002323  40.4824 333.1477 15.08859843  3602,6917.82,95.436,541.2919999999998,538.078,0.0
49730.0,STARLINK-3249,PAYLOAD,2022-02-18 14:00:01,15.08805361,0.0002205,53.216,323.5897,39.6495,357.1841,0.0023429,0.00037161,0.0,0 STARLINK-3249,1 49730U 21115G   22049.58334491  .00037161  00000-0  23429-2 0  9997,2 49730  53.2160 323.5897 0002205  39.6495 357.1841 15.08805361  3609,6917.986,95.44,541.377,538.326,0.0
49730.0,STARLINK-3249,PAYLOAD,2022-02-18 22:00:00,15.08846384,0.0002322,53.2161,322.0943,40.0999,8.2987,-0.0016500999999999,-0.00026459,0.0,0 STARLINK-3249,1 49730U 21115G   22049.91667824 -.00026459  00000-0 -16501-2 0  9996,2 49730  53.2161 322.0943 0002322  40.0999   8.2987 15.08846384 13102,6917.861,95.437,541.332,538.12,0.0
